[{"OBJECT_NAME":"TIANMU-1 07","OBJECT_ID":"2023-101A","EPOCH":"2026-03-06T13:47:20.454720","MEAN_MOTION":15.29118809,"ECCENTRICITY":0.00046097,"INCLINATION":97.2728,"RA_OF_ASC_NODE":118.5929,"ARG_OF_PERICENTER":142.4105,"MEAN_ANOMALY":217.7458,"EPHEMERIS_TYPE":0,"CLASSIFICATION_TYPE":"U","NORAD_CAT_ID":57399,"ELEMENT_SET_NO":999,"REV_AT_EPOCH":14596,"BSTAR":0.00029794732,"MEAN_MOTION_DOT":8.352e-5,"MEAN_MOTION_DDOT":0},{"OBJECT_NAME":"STARLINK-36444","OBJECT_ID":"2026-012AE","EPOCH":"2026-03-08T16:57:00.573696","MEAN_MOTION":15.27614984,"ECCENTRICITY":0.0001132,"INCLINATION":42.9989,"RA_OF_ASC_NODE":319.758,"ARG_OF_PERICENTER":263.0091,"MEAN_ANOMALY":97.0632,"EPHEMERIS_TYPE":0,"CLASSIFICATION_TYPE":"U","NORAD_CAT_ID":67521,"ELEMENT_SET_NO":999,"REV_AT_EPOCH":761,"BSTAR":0.0019473475,"MEAN_MOTION_DOT":0.00053774,"MEAN_MOTION_DDOT":0}]
