TIANMU-1 07             
1 57399U 23101A   26065.57454230  .00008352  00000+0  29795-3 0  9991
2 57399  97.2728 118.5929 0004609 142.4105 217.7458 15.29118809145964
STARLINK-36444          
1 67521U 26012AE  26067.70625664  .00053774  00000+0  19473-2 0  9990
2 67521  42.9989 319.7580 0001132 263.0091  97.0632 15.27614984  7613
